{"type": "FeatureCollection", "features": [ {"type": "Feature", "properties": {"norad_id": 66430, "name": "STARLINK-35470", "group": "last-30-days", "lat": -22.478315421822426, "lon": -88.76288803800593, "alt_km": 446.0842006852281, "timestamp": "2025-12-09T18:55:16.021252+00:00", "meta": {"OBJECT_NAME": "STARLINK-35470", "OBJECT_ID": "2025-259J", "EPOCH": "2025-12-09T16:00:01.999584", "MEAN_MOTION": 15.40613178, "ECCENTRICITY": 0.00012973, "INCLINATION": 43.0009, "RA_OF_ASC_NODE": 65.5781, "ARG_OF_PERICENTER": 285.8824, "MEAN_ANOMALY": 332.4416, "EPHEMERIS_TYPE": 0, "CLASSIFICATION_TYPE": "U", "NORAD_CAT_ID": 66430, "ELEMENT_SET_NO": 999, "REV_AT_EPOCH": 578, "BSTAR": 0.00356683, "MEAN_MOTION_DOT": 0.00151245, "MEAN_MOTION_DDOT": 0}, "tle": {"line1": "1 66430U 25259J   25343.66668981  .00151245  00000+0  35668-2 0  9996", "line2": "2 66430  43.0009  65.5781 0001297 285.8824 332.4416 15.40613178  5784"}}, "geometry": {"type": "Point", "coordinates": [-88.76288803800593, -22.478315421822426]}}, {"type": "Feature", "properties": {"norad_id": 66431, "name": "STARLINK-35439", "group": "last-30-days", "lat": -29.65328096599695, "lon": -77.49806348261798, "alt_km": 446.37299945340055, "timestamp": "2025-12-09T18:55:16.021262+00:00", "meta": {"OBJECT_NAME": "STARLINK-35439", "OBJECT_ID": "2025-259K", "EPOCH": "2025-12-09T16:00:01.999584", "MEAN_MOTION": 15.40703643, "ECCENTRICITY": 0.00010946, "INCLINATION": 43.0007, "RA_OF_ASC_NODE": 65.5467, "ARG_OF_PERICENTER": 288.0148, "MEAN_ANOMALY": 342.7021, "EPHEMERIS_TYPE": 0, "CLASSIFICATION_TYPE": "U", "NORAD_CAT_ID": 66431, "ELEMENT_SET_NO": 999, "REV_AT_EPOCH": 578, "BSTAR": -7.9321495e-05, "MEAN_MOTION_DOT": -3.615e-05, "MEAN_MOTION_DDOT": 0}, "tle": {"line1": "1 66431U 25259K   25343.66668981 -.00003615  00000+0 -79321-4 0  9992", "line2": "2 66431  43.0007  65.5467 0001094 288.0148 342.7021 15.40703643  5786"}}, "geometry": {"type": "Point", "coordinates": [-77.49806348261798, -29.65328096599695]}}, {"type": "Feature", "properties": {"norad_id": 66432, "name": "STARLINK-35446", "group": "last-30-days", "lat": -35.75885372455935, "lon": -64.58164343977978, "alt_km": 446.6060102678721, "timestamp": "2025-12-09T18:55:16.021272+00:00", "meta": {"OBJECT_NAME": "STARLINK-35446", "OBJECT_ID": "2025-259L", "EPOCH": "2025-12-09T16:00:01.999584", "MEAN_MOTION": 15.40603055, "ECCENTRICITY": 0.0001057, "INCLINATION": 43.0005, "RA_OF_ASC_NODE": 65.5154, "ARG_OF_PERICENTER": 261.8, "MEAN_ANOMALY": 21.4352, "EPHEMERIS_TYPE": 0, "CLASSIFICATION_TYPE": "U", "NORAD_CAT_ID": 66432, "ELEMENT_SET_NO": 999, "REV_AT_EPOCH": 578, "BSTAR": 0.0034450098, "MEAN_MOTION_DOT": 0.00145917, "MEAN_MOTION_DDOT": 0}, "tle": {"line1": "1 66432U 25259L   25343.66668981  .00145917  00000+0  34450-2 0  9995", "line2": "2 66432  43.0005  65.5154 0001057 261.8000  21.4352 15.40603055  5787"}}, "geometry": {"type": "Point", "coordinates": [-64.58164343977978, -35.75885372455935]}}, {"type": "Feature", "properties": {"norad_id": 66433, "name": "STARLINK-35457", "group": "last-30-days", "lat": -40.25551362851974, "lon": -49.89869600429139, "alt_km": 446.70423677203325, "timestamp": "2025-12-09T18:55:16.021283+00:00", "meta": {"OBJECT_NAME": "STARLINK-35457", "OBJECT_ID": "2025-259M", "EPOCH": "2025-12-09T16:00:01.999584", "MEAN_MOTION": 15.40607256, "ECCENTRICITY": 0.00011448, "INCLINATION": 43.0006, "RA_OF_ASC_NODE": 65.486, "ARG_OF_PERICENTER": 262.224, "MEAN_ANOMALY": 33.4394, "EPHEMERIS_TYPE": 0, "CLASSIFICATION_TYPE": "U", "NORAD_CAT_ID": 66433, "ELEMENT_SET_NO": 999, "REV_AT_EPOCH": 578, "BSTAR": 0.0035423288, "MEAN_MOTION_DOT": 0.00150152, "MEAN_MOTION_DDOT": 0}, "tle": {"line1": "1 66433U 25259M   25343.66668981  .00150152  00000+0  35423-2 0  9994", "line2": "2 66433  43.0006  65.4860 0001144 262.2240  33.4394 15.40607256  5786"}}, "geometry": {"type": "Point", "coordinates": [-49.89869600429139, -40.25551362851974]}}, {"type": "Feature", "properties": {"norad_id": 66434, "name": "STARLINK-35389", "group": "last-30-days", "lat": -42.67224382862627, "lon": -33.64119420044322, "alt_km": 446.85313559642236, "timestamp": "2025-12-09T18:55:16.021293+00:00", "meta": {"OBJECT_NAME": "STARLINK-35389", "OBJECT_ID": "2025-259N", "EPOCH": "2025-12-09T16:00:01.999584", "MEAN_MOTION": 15.40666001, "ECCENTRICITY": 9.11e-05, "INCLINATION": 43.0003, "RA_OF_ASC_NODE": 65.456, "ARG_OF_PERICENTER": 276.0063, "MEAN_ANOMALY": 32.0765, "EPHEMERIS_TYPE": 0, "CLASSIFICATION_TYPE": "U", "NORAD_CAT_ID": 66434, "ELEMENT_SET_NO": 999, "REV_AT_EPOCH": 578, "BSTAR": 0.0015175961, "MEAN_MOTION_DOT": 0.00063547, "MEAN_MOTION_DDOT": 0}, "tle": {"line1": "1 66434U 25259N   25343.66668981  .00063547  00000+0  15176-2 0  9999", "line2": "2 66434  43.0003  65.4560 0000911 276.0063  32.0765 15.40666001  5788"}}, "geometry": {"type": "Point", "coordinates": [-33.64119420044322, -42.67224382862627]}}, {"type": "Feature", "properties": {"norad_id": 66435, "name": "STARLINK-35502", "group": "last-30-days", "lat": -42.66156905409459, "lon": -16.734601781890024, "alt_km": 446.89105146673046, "timestamp": "2025-12-09T18:55:16.021306+00:00", "meta": {"OBJECT_NAME": "STARLINK-35502", "OBJECT_ID": "2025-259P", "EPOCH": "2025-12-09T16:00:01.999584", "MEAN_MOTION": 15.40608472, "ECCENTRICITY": 9.865e-05, "INCLINATION": 43.0004, "RA_OF_ASC_NODE": 65.4257, "ARG_OF_PERICENTER": 278.1103, "MEAN_ANOMALY": 42.444, "EPHEMERIS_TYPE": 0, "CLASSIFICATION_TYPE": "U", "NORAD_CAT_ID": 66435, "ELEMENT_SET_NO": 999, "REV_AT_EPOCH": 578, "BSTAR": 0.0036408986, "MEAN_MOTION_DOT": 0.00154433, "MEAN_MOTION_DDOT": 0}, "tle": {"line1": "1 66435U 25259P   25343.66668981  .00154433  00000+0  36409-2 0  9997", "line2": "2 66435  43.0004  65.4257 0000986 278.1103  42.4440 15.40608472  5786"}}, "geometry": {"type": "Point", "coordinates": [-16.734601781890024, -42.66156905409459]}}, {"type": "Feature", "properties": {"norad_id": 66436, "name": "STARLINK-35501", "group": "last-30-days", "lat": -35.71732562167039, "lon": 14.164532661239939, "alt_km": 446.37513250074517, "timestamp": "2025-12-09T18:55:16.021316+00:00", "meta": {"OBJECT_NAME": "STARLINK-35501", "OBJECT_ID": "2025-259Q", "EPOCH": "2025-12-09T16:00:01.999584", "MEAN_MOTION": 15.40627142, "ECCENTRICITY": 0.00012497, "INCLINATION": 43.0003, "RA_OF_ASC_NODE": 65.3642, "ARG_OF_PERICENTER": 305.0721, "MEAN_ANOMALY": 40.339, "EPHEMERIS_TYPE": 0, "CLASSIFICATION_TYPE": "U", "NORAD_CAT_ID": 66436, "ELEMENT_SET_NO": 999, "REV_AT_EPOCH": 578, "BSTAR": 0.0024368857, "MEAN_MOTION_DOT": 0.00102621, "MEAN_MOTION_DDOT": 0}, "tle": {"line1": "1 66436U 25259Q   25343.66668981  .00102621  00000+0  24369-2 0  9992", "line2": "2 66436  43.0003  65.3642 0001249 305.0721  40.3390 15.40627142  5788"}}, "geometry": {"type": "Point", "coordinates": [14.164532661239939, -35.71732562167039]}}, {"type": "Feature", "properties": {"norad_id": 66437, "name": "STARLINK-35474", "group": "last-30-days", "lat": -29.62250839206382, "lon": 27.02956126683403, "alt_km": 445.7608433155019, "timestamp": "2025-12-09T18:55:16.021327+00:00", "meta": {"OBJECT_NAME": "STARLINK-35474", "OBJECT_ID": "2025-259R", "EPOCH": "2025-12-09T16:00:01.999584", "MEAN_MOTION": 15.40751204, "ECCENTRICITY": 0.00014412, "INCLINATION": 43.0001, "RA_OF_ASC_NODE": 65.3334, "ARG_OF_PERICENTER": 289.529, "MEAN_ANOMALY": 68.2807, "EPHEMERIS_TYPE": 0, "CLASSIFICATION_TYPE": "U", "NORAD_CAT_ID": 66437, "ELEMENT_SET_NO": 999, "REV_AT_EPOCH": 578, "BSTAR": -0.0029098973, "MEAN_MOTION_DOT": -0.00120167, "MEAN_MOTION_DDOT": 0}, "tle": {"line1": "1 66437U 25259R   25343.66668981 -.00120167  00000+0 -29099-2 0  9995", "line2": "2 66437  43.0001  65.3334 0001441 289.5290  68.2807 15.40751204  5785"}}, "geometry": {"type": "Point", "coordinates": [27.02956126683403, -29.62250839206382]}}, {"type": "Feature", "properties": {"norad_id": 66438, "name": "STARLINK-34681", "group": "last-30-days", "lat": -22.75505310104721, "lon": 37.85324416739359, "alt_km": 441.7651015897454, "timestamp": "2025-12-09T18:55:16.021337+00:00", "meta": {"OBJECT_NAME": "STARLINK-34681", "OBJECT_ID": "2025-259S", "EPOCH": "2025-12-09T16:00:01.999584", "MEAN_MOTION": 15.4256789, "ECCENTRICITY": 0.00015183, "INCLINATION": 43.0002, "RA_OF_ASC_NODE": 65.307, "ARG_OF_PERICENTER": 287.2323, "MEAN_ANOMALY": 81.8207, "EPHEMERIS_TYPE": 0, "CLASSIFICATION_TYPE": "U", "NORAD_CAT_ID": 66438, "ELEMENT_SET_NO": 999, "REV_AT_EPOCH": 567, "BSTAR": -0.057877462, "MEAN_MOTION_DOT": -0.02299456, "MEAN_MOTION_DDOT": 0}, "tle": {"line1": "1 66438U 25259S   25343.66668981 -.02299456  00000+0 -57877-1 0  9990", "line2": "2 66438  43.0002  65.3070 0001518 287.2323  81.8207 15.42567890  5672"}}, "geometry": {"type": "Point", "coordinates": [37.85324416739359, -22.75505310104721]}}, {"type": "Feature", "properties": {"norad_id": 66439, "name": "STARLINK-35327", "group": "last-30-days", "lat": -40.24715580140962, "lon": -0.5847968398594223, "alt_km": 446.93885327912903, "timestamp": "2025-12-09T18:55:16.021348+00:00", "meta": {"OBJECT_NAME": "STARLINK-35327", "OBJECT_ID": "2025-259T", "EPOCH": "2025-12-09T16:00:01.999584", "MEAN_MOTION": 15.40611685, "ECCENTRICITY": 8.004e-05, "INCLINATION": 43.0004, "RA_OF_ASC_NODE": 65.3972, "ARG_OF_PERICENTER": 300.0096, "MEAN_ANOMALY": 32.9085, "EPHEMERIS_TYPE": 0, "CLASSIFICATION_TYPE": "U", "NORAD_CAT_ID": 66439, "ELEMENT_SET_NO": 999, "REV_AT_EPOCH": 578, "BSTAR": 0.0029706295, "MEAN_MOTION_DOT": 0.00125479, "MEAN_MOTION_DDOT": 0}, "tle": {"line1": "1 66439U 25259T   25343.66668981  .00125479  00000+0  29706-2 0  9991", "line2": "2 66439  43.0004  65.3972 0000800 300.0096  32.9085 15.40611685  5783"}}, "geometry": {"type": "Point", "coordinates": [-0.5847968398594223, -40.24715580140962]}}]}